COSMOS 2489             
1 39484U 13076B   24175.50032979  .00000043  00000+0  23983-3 0  9993
2 39484  82.4876 260.8290 0020668 229.9399 129.9869 12.42879975476248
COSMOS 2490             
1 39485U 13076C   24175.23072303  .00000047  00000+0  27230-3 0  9992
2 39485  82.4821 259.3815 0020168 245.9499 113.9470 12.42893256476158
AIST-1 (RS-41)          
1 39492U 13078C   24175.54237354  .00001904  00000+0  18674-3 0  9990
2 39492  82.4176 249.8400 0018762 173.8785 186.2667 14.91606362569517
KAZEOSAT 1              
1 39731U 14024A   24175.52847238  .00000307  00000+0  10661-3 0  9998
2 39731  98.3949 251.8733 0001109  86.4377 273.6939 14.42026152534314
COSMOS 2496             
1 39761U 14028A   24175.51152195  .00000030  00000+0  14387-3 0  9997
2 39761  82.4444 202.0024 0018964 212.3943 147.5973 12.42868768457673
COSMOS 2497             
1 39762U 14028B   24175.48529157  .00000038  00000+0  20330-3 0  9993
2 39762  82.4491 203.4204 0019740 206.4711 153.5362 12.42882743457679
COSMOS 2498             
1 39763U 14028C   24175.19079695  .00000041  00000+0  22592-3 0  9995
2 39763  82.4454 202.3971 0020333 207.4428 152.5579 12.42941382457645
COSMOS 2499 (RS-47)     
1 39765U 14028E   24175.54418559  .00000039  00000+0  11232-3 0  9998
2 39765  82.4500  20.7192 0230559 260.5595  96.9380 12.82874388472445
SPROUT                  
1 39770U 14029E   24175.46105004  .00158262  00000+0  27560-2 0  9996
2 39770  98.0076 328.7464 0006782 214.0245 146.0570 15.50158216548625
HODOYOSHI-4             
1 40011U 14033B   24175.57186400  .00001573  00000+0  19263-3 0  9996
2 40011  97.5813  24.9552 0025309 175.4650 184.6799 14.84291026541310
UNISAT-6                
1 40012U 14033C   24175.49579521  .00002611  00000+0  34486-3 0  9996
2 40012  97.7037 337.6637 0051281 284.9204  74.6333 14.79947706538773
DEIMOS-2                
1 40013U 14033D   24175.50557242  .00002059  00000+0  22531-3 0  9999
2 40013  97.6806  61.9885 0001293 116.1997 243.9353 14.88855449542705
BUGSAT-1 (TITA)         
1 40014U 14033E   24175.45913370  .00005945  00000+0  42782-3 0  9999
2 40014  98.1250 217.3742 0036744 112.7559 247.7554 15.04086768546594
SAUDISAT 4              
1 40016U 14033G   24174.88441600  .00000875  00000+0  12866-3 0  9996
2 40016  97.6668 340.4064 0045360 270.1706  89.4307 14.77185360539041
APRIZESAT 9             
1 40018U 14033J   24175.37456283  .00000707  00000+0  11641-3 0  9990
2 40018  97.8042 320.7680 0069021   8.3241 351.9094 14.71963507537118
BRITE-CA1 (TORONTO)     
1 40020U 14033L   24175.42165211  .00001331  00000+0  22088-3 0  9998
2 40020  97.8784 312.3246 0084315  72.6318 288.4088 14.69476674535892
DUCHIFAT-1              
1 40021U 14033M   24174.93592432  .00010691  00000+0  70820-3 0  9999
2 40021  98.0896 159.0633 0015174  84.2613 276.0343 15.07414473544990
NANOSATC-BR1            
1 40024U 14033Q   24174.86531555  .00008540  00000+0  63090-3 0  9994
2 40024  98.0643 147.2028 0007632 139.7934 220.3856 15.03470894544101
QB50P1                  
1 40025U 14033R   24175.42165586  .00005629  00000+0  45883-3 0  9990
2 40025  98.0383 136.3825 0013000 138.1721 222.0497 14.99834416544322
DTUSAT-2                
1 40030U 14033W   24174.82625800  .00006484  00000+0  54630-3 0  9999
2 40030  98.0099 127.4153 0011813 125.6976 234.5346 14.98507047543540
FLOCK 1C-4              
1 40031U 14033X   24175.46016662  .00009656  00000+0  63566-3 0  9993
2 40031  98.0752 152.3095 0008883  94.8912 265.3328 15.07736369544667
QB50P2                  
1 40032U 14033Y   24175.46254882  .00005490  00000+0  46312-3 0  9994
2 40032  98.0060 128.0790 0010639 131.6627 228.5507 14.98543539544133
PERSEUS-M1              
1 40039U 14033AF  24175.49713972  .00001990  00000+0  21050-3 0  9997
2 40039  97.9076 102.3478 0013208 166.8083 193.3483 14.90293249543137
POLYITAN-1              
1 40042U 14033AJ  24174.88015195  .00007929  00000+0  59801-3 0  9998
2 40042  98.0698 139.3987 0015704 109.9669 250.3248 15.02639615543698
TIGRISAT                
1 40043U 14033AK  24175.16038051  .00001966  00000+0  26692-3 0  9994
2 40043  97.6957 337.6318 0053912 284.3629  75.1602 14.78968722538642
AISAT                   
1 40054U 14034B   24175.15970493  .00006058  00000+0  64734-3 0  9997
2 40054  98.3367  30.8491 0011442 101.2260 259.0243 14.89132325538706
CANX-4                  
1 40055U 14034C   24175.48745566  .00001444  00000+0  20721-3 0  9997
2 40055  98.3929  10.5023 0013704 166.0917 194.0672 14.78105786537519
CANX-5                  
1 40056U 14034D   24175.49258609  .00001435  00000+0  20591-3 0  9991
2 40056  98.3931  10.5114 0013696 166.2815 193.8769 14.78115052537514
VELOX-I                 
1 40057U 14034E   24175.50634599  .00003990  00000+0  46160-3 0  9998
2 40057  98.3408  30.9764 0010330 118.1992 242.0266 14.86110948538647
GONETS-M 10             
1 40063U 14036C   24175.50809029  .00000030  00000+0  14949-3 0  9991
2 40063  82.5111  37.1371 0020899 282.3884  77.4857 12.42914084452541
METEOR-M 2              
1 40069U 14037A   24175.50860131  .00000136  00000+0  82061-4 0  9997
2 40069  98.4361 169.4638 0005512 353.3054   6.8049 14.20982745516523
DX1                     
1 40071U 14037C   24175.48890921  .00001926  00000+0  23312-3 0  9998
2 40071  98.3339  88.2607 0009354 100.4942 259.7325 14.84916351538574
UKUBE-1                 
1 40074U 14037F   24175.36443611  .00006562  00000+0  62178-3 0  9992
2 40074  98.3439 105.6676 0005907  64.8550 295.3280 14.93953871539706
GAOFEN-2                
1 40118U 14049A   24175.49453885  .00001326  00000+0  17854-3 0  9996
2 40118  97.6606 225.7987 0006473  68.7863 291.4041 14.80751387532160
BRITE-PL2 (HEWELIUSZ)   
1 40119U 14049B   24175.19858473  .00001846  00000+0  20225-3 0  9999
2 40119  97.8839 274.8373 0015316 349.5613  10.5284 14.88927398533563
HODOYOSHI-1             
1 40299U 14070B   24175.44947283  .00024060  00000+0  45165-3 0  9991
2 40299  97.1384 235.4896 0006828  25.7402 334.4188 15.48587582536096
CBERS 4                 
1 40336U 14079A   24175.53141975  .00000194  00000+0  82327-4 0  9990
2 40336  98.4001 243.6979 0000965  68.1369 291.9919 14.35487443500157
SMAP                    
1 40376U 15003A   24175.52400365  .00000718  00000+0  14807-3 0  9991
2 40376  98.1271 181.8259 0001432  83.5875 276.5490 14.63345790501786
CP10 (EXOCUBE)          
1 40380U 15003E   24175.11641166  .00806418  34035-3  11010-2 0  9999
2 40380  99.0843 204.5657 0013775 105.7493 254.5303 16.06116588520406
GONETS-M 11             
1 40552U 15020A   24175.17400987  .00000041  00000+0  22611-3 0  9998
2 40552  82.4853 122.0993 0016778 137.5184 222.7197 12.42869936418836
GONETS-M 12             
1 40553U 15020B   24175.47008352  .00000018  00000+0  60482-4 0  9995
2 40553  82.4888 122.8344 0015770 122.0181 238.2433 12.42881524418865
GONETS-M 13             
1 40554U 15020C   24175.20092802  .00000020  00000+0  72943-4 0  9998
2 40554  82.4848 121.8484 0014535 108.0426 252.2239 12.42871243418845
DMC3-FM1                
1 40715U 15032A   24175.50385118  .00000866  00000+0  11108-3 0  9991
2 40715  97.7494  54.2339 0004210 274.3511  85.7222 14.83706250482517
DMC3-FM2                
1 40716U 15032B   24175.52668546  .00000866  00000+0  11097-3 0  9990
2 40716  97.7547  55.3296 0006146 279.4223  80.6296 14.83712816482517
DMC3-FM3                
1 40717U 15032C   24175.55176643  .00000664  00000+0  86728-4 0  9996
2 40717  97.7597  56.6324 0007604 275.0500  84.9847 14.83639927482520
CARBONITE 1 (CBNT-1)    
1 40718U 15032D   24175.56266526  .00002042  00000+0  28521-3 0  9996
2 40718  97.6580  15.3987 0016519 139.3350 220.9098 14.78575497482209
DEORBITSAIL             
1 40719U 15032E   24174.56481694  .00006207  00000+0  69951-3 0  9990
2 40719  97.6864  37.7956 0014850 116.0224 244.2524 14.86869492482895
2015-049A               
1 40899U 15049A   24175.49762113  .00021889  00000+0  53243-3 0  9998
2 40899  97.4638 191.6248 0006053 288.6826  71.3763 15.40963705485615
KAITUO 1A               
1 40904U 15049F   24175.50152219  .00038464  00000+0  72673-3 0  9992
2 40904  97.4822 192.4690 0004417 281.3473  78.7280 15.48327348485426
2015-049G               
1 40905U 15049G   24175.53889202  .00009388  00000+0  33723-3 0  9991
2 40905  97.5207 184.6979 0010000 327.3442  32.7178 15.28836193484684
XW-2C                   
1 40906U 15049H   24175.54269935  .00025555  00000+0  58074-3 0  9998
2 40906  97.4765 192.5187 0005536 271.4882  88.5731 15.42984720485453
XW-2D                   
1 40907U 15049J   24175.53027392  .00041972  00000+0  72923-3 0  9997
2 40907  97.4703 195.0880 0004605 241.8911 118.1876 15.50703015485684
LILACSAT-2              
1 40908U 15049K   24175.55301417  .00008068  00000+0  31132-3 0  9999
2 40908  97.5225 184.3073 0011009 336.2129  23.8599 15.26509972484464
XW-2B                   
1 40911U 15049N   24175.49523790  .00038797  00000+0  69359-3 0  9990
2 40911  97.4674 195.1390 0004367 245.3947 114.6849 15.49909883485541
COSMOS 2507             
1 40920U 15050A   24175.17488720  .00000031  00000+0  14935-3 0  9990
2 40920  82.4912 170.4006 0010671 122.3435 237.8679 12.42890241396942
COSMOS 2508             
1 40921U 15050B   24175.20202631  .00000024  00000+0  10415-3 0  9991
2 40921  82.4865 169.1614 0014283 156.5330 203.6404 12.42873484396932
COSMOS 2509             
1 40922U 15050C   24174.90661343  .00000006  00000+0 -30061-4 0  9998
2 40922  82.4866 169.4284 0016221 171.5322 188.6035 12.42881254396905
LAPAN-A2                
1 40931U 15052B   24174.88421663  .00001301  00000+0  88633-4 0  9992
2 40931   6.0006 312.0275 0012706 165.2053 194.8447 14.77889922472309
LQSAT                   
1 40958U 15057A   24175.51209513  .00000929  00000+0  14547-3 0  9992
2 40958  97.6668 195.3386 0019197  99.5833 260.7547 14.74790990468547
